{
  "norad_id": 64070,
  "name": "STARLINK-11713 [DTC]",
  "history": [
    {
      "epoch": "2026-03-28T02:42:03.383424Z",
      "apogee_km": 357.4396741267474,
      "perigee_km": 355.21501117579555,
      "latitude_deg": -1.7420841762390466e-05,
      "longitude_deg": 121.29832454630548,
      "height_km": 356.32371417321264,
      "semi_major_axis_km": 6734.464342651271,
      "eccentricity": 0.00016517,
      "inclination_deg": 43.0,
      "raan_deg": 347.3501,
      "arg_perigee_deg": 258.3938,
      "mean_anomaly_deg": 101.6744,
      "mean_motion_rev_day": 15.70898682
    },
    {
      "epoch": "2026-03-29T01:35:25.178496Z",
      "apogee_km": 358.866583754515,
      "perigee_km": 352.92985830365524,
      "latitude_deg": 2.4536090475731e-05,
      "longitude_deg": 131.27112243144086,
      "height_km": 356.2302018049856,
      "semi_major_axis_km": 6734.035221029085,
      "eccentricity": 0.0004408,
      "inclination_deg": 43.0005,
      "raan_deg": 341.6037,
      "arg_perigee_deg": 259.1704,
      "mean_anomaly_deg": 100.8668,
      "mean_motion_rev_day": 15.71048841
    },
    {
      "epoch": "2026-03-30T03:31:58.435104Z",
      "apogee_km": 357.20470632279466,
      "perigee_km": 355.5131356373631,
      "latitude_deg": -3.571658814112742e-05,
      "longitude_deg": 94.54876607945435,
      "height_km": 356.3688841475878,
      "semi_major_axis_km": 6734.495920980079,
      "eccentricity": 0.00012559,
      "inclination_deg": 42.9981,
      "raan_deg": 335.0854,
      "arg_perigee_deg": 253.6613,
      "mean_anomaly_deg": 106.4116,
      "mean_motion_rev_day": 15.70887633
    },
    {
      "epoch": "2026-03-30T09:38:13.246944Z",
      "apogee_km": 356.86447392872196,
      "perigee_km": 355.7833235760363,
      "latitude_deg": -4.432710611509434e-06,
      "longitude_deg": 1.2045966647557311,
      "height_km": 355.86905278785514,
      "semi_major_axis_km": 6734.460898752379,
      "eccentricity": 8.027e-05,
      "inclination_deg": 43.0001,
      "raan_deg": 333.5536,
      "arg_perigee_deg": 294.7998,
      "mean_anomaly_deg": 65.2786,
      "mean_motion_rev_day": 15.70899887
    },
    {
      "epoch": "2026-03-30T17:16:00.833376Z",
      "apogee_km": 357.6360348898297,
      "perigee_km": 355.1139601467594,
      "latitude_deg": -5.803276732164441e-05,
      "longitude_deg": -115.47518517153352,
      "height_km": 355.4230647166243,
      "semi_major_axis_km": 6734.511997518294,
      "eccentricity": 0.00018725,
      "inclination_deg": 43.0,
      "raan_deg": 331.6355,
      "arg_perigee_deg": 305.0719,
      "mean_anomaly_deg": 54.9972,
      "mean_motion_rev_day": 15.70882008
    },
    {
      "epoch": "2026-03-31T00:53:48.825888Z",
      "apogee_km": 357.35961729624796,
      "perigee_km": 355.4243830427595,
      "latitude_deg": -1.629601427408381e-05,
      "longitude_deg": 127.84663803074231,
      "height_km": 356.3555689559398,
      "semi_major_axis_km": 6734.529000169503,
      "eccentricity": 0.00014368,
      "inclination_deg": 42.9998,
      "raan_deg": 329.7206,
      "arg_perigee_deg": 258.6054,
      "mean_anomaly_deg": 101.4652,
      "mean_motion_rev_day": 15.70876059
    },
    {
      "epoch": "2026-04-01T02:50:19.940640Z",
      "apogee_km": 357.44607732393433,
      "perigee_km": 355.31743063617614,
      "latitude_deg": -4.5686918886129895e-05,
      "longitude_deg": 91.13626427490054,
      "height_km": 356.27445069804924,
      "semi_major_axis_km": 6734.5187539800545,
      "eccentricity": 0.00015804,
      "inclination_deg": 42.9987,
      "raan_deg": 323.2053,
      "arg_perigee_deg": 263.5114,
      "mean_anomaly_deg": 96.5573,
      "mean_motion_rev_day": 15.70879644
    },
    {
      "epoch": "2026-04-02T15:27:44.638560Z",
      "apogee_km": 357.5151523120894,
      "perigee_km": 355.21855180845887,
      "latitude_deg": -1.676111259903885e-05,
      "longitude_deg": -108.91838615911746,
      "height_km": 356.110683422287,
      "semi_major_axis_km": 6734.503852060274,
      "eccentricity": 0.00017051,
      "inclination_deg": 42.9984,
      "raan_deg": 314.0076,
      "arg_perigee_deg": 271.4313,
      "mean_anomaly_deg": 88.6359,
      "mean_motion_rev_day": 15.70884858
    },
    {
      "epoch": "2026-04-02T21:33:58.747968Z",
      "apogee_km": 357.208423613798,
      "perigee_km": 355.14072058869897,
      "latitude_deg": -4.7907803794777795e-05,
      "longitude_deg": 157.7384125477513,
      "height_km": 355.94299817492805,
      "semi_major_axis_km": 6734.311572101248,
      "eccentricity": 0.00015352,
      "inclination_deg": 42.9993,
      "raan_deg": 312.4739,
      "arg_perigee_deg": 270.2243,
      "mean_anomaly_deg": 89.8448,
      "mean_motion_rev_day": 15.70952137
    },
    {
      "epoch": "2026-04-04T14:46:05.735424Z",
      "apogee_km": 357.57144942412197,
      "perigee_km": 354.48316167359735,
      "latitude_deg": -1.4953730404636613e-05,
      "longitude_deg": -112.33147088949947,
      "height_km": 356.4961006289687,
      "semi_major_axis_km": 6734.164305548859,
      "eccentricity": 0.0002293,
      "inclination_deg": 42.9986,
      "raan_deg": 302.1252,
      "arg_perigee_deg": 243.2044,
      "mean_anomaly_deg": 116.8589,
      "mean_motion_rev_day": 15.71003669
    },
    {
      "epoch": "2026-04-05T13:39:31.380480Z",
      "apogee_km": 357.95994974312634,
      "perigee_km": 354.8596337820709,
      "latitude_deg": 3.163674823207384e-06,
      "longitude_deg": -102.37678501731371,
      "height_km": 356.1329319768951,
      "semi_major_axis_km": 6734.546791762598,
      "eccentricity": 0.00023018,
      "inclination_deg": 42.9996,
      "raan_deg": 296.3768,
      "arg_perigee_deg": 271.8469,
      "mean_anomaly_deg": 88.2135,
      "mean_motion_rev_day": 15.70869834
    },
    {
      "epoch": "2026-04-05T19:45:45.400032Z",
      "apogee_km": 357.5723246542784,
      "perigee_km": 354.72102894552154,
      "latitude_deg": -2.0373662462665944e-05,
      "longitude_deg": 164.2804965953746,
      "height_km": 355.984604503702,
      "semi_major_axis_km": 6734.2836767999,
      "eccentricity": 0.0002117,
      "inclination_deg": 42.9993,
      "raan_deg": 294.8432,
      "arg_perigee_deg": 267.386,
      "mean_anomaly_deg": 92.6765,
      "mean_motion_rev_day": 15.70961898
    },
    {
      "epoch": "2026-04-05T22:48:52.195104Z",
      "apogee_km": 357.8848833073271,
      "perigee_km": 354.64967549150424,
      "latitude_deg": -7.134821883355903e-07,
      "longitude_deg": 117.61126796588907,
      "height_km": 355.8614379679866,
      "semi_major_axis_km": 6734.404279399416,
      "eccentricity": 0.0002402,
      "inclination_deg": 42.9991,
      "raan_deg": 294.0776,
      "arg_perigee_deg": 276.3518,
      "mean_anomaly_deg": 83.7076,
      "mean_motion_rev_day": 15.70919698
    },
    {
      "epoch": "2026-04-07T12:57:51.818112Z",
      "apogee_km": 359.51158428487815,
      "perigee_km": 352.34546111824056,
      "latitude_deg": -5.088064823442572e-06,
      "longitude_deg": -105.78473057930299,
      "height_km": 353.5028164079647,
      "semi_major_axis_km": 6734.0655227015595,
      "eccentricity": 0.00053208,
      "inclination_deg": 43.0,
      "raan_deg": 284.4968,
      "arg_perigee_deg": 307.8845,
      "mean_anomaly_deg": 52.1541,
      "mean_motion_rev_day": 15.71038237
    },
    {
      "epoch": "2026-04-07T20:35:39.606720Z",
      "apogee_km": 357.91275701350514,
      "perigee_km": 354.98321254512575,
      "latitude_deg": -1.2277368395964074e-05,
      "longitude_deg": 137.53529106847355,
      "height_km": 356.5058890048503,
      "semi_major_axis_km": 6734.584984779315,
      "eccentricity": 0.0002175,
      "inclination_deg": 43.0004,
      "raan_deg": 282.5793,
      "arg_perigee_deg": 258.7852,
      "mean_anomaly_deg": 101.2771,
      "mean_motion_rev_day": 15.70856471
    },
    {
      "epoch": "2026-04-08T11:51:15.494112Z",
      "apogee_km": 356.60464427702664,
      "perigee_km": 355.649860291338,
      "latitude_deg": 7.384999214432262e-06,
      "longitude_deg": -95.82212535162846,
      "height_km": 355.843151433399,
      "semi_major_axis_km": 6734.2642522841825,
      "eccentricity": 7.089e-05,
      "inclination_deg": 42.9969,
      "raan_deg": 278.7481,
      "arg_perigee_deg": 276.6857,
      "mean_anomaly_deg": 83.393,
      "mean_motion_rev_day": 15.70968695
    },
    {
      "epoch": "2026-04-08T21:00:37.285920Z",
      "apogee_km": 357.20966017923183,
      "perigee_km": 355.55027519839405,
      "latitude_deg": -3.806495543931027e-05,
      "longitude_deg": 124.16060005751618,
      "height_km": 356.04669901086993,
      "semi_major_axis_km": 6734.516967688813,
      "eccentricity": 0.0001232,
      "inclination_deg": 43.0001,
      "raan_deg": 276.4477,
      "arg_perigee_deg": 277.3117,
      "mean_anomaly_deg": 82.761,
      "mean_motion_rev_day": 15.70880269
    },
    {
      "epoch": "2026-04-11T17:40:48.535968Z",
      "apogee_km": 357.435029824288,
      "perigee_km": 355.37830018899604,
      "latitude_deg": -5.090315758286617e-06,
      "longitude_deg": 154.04578505994886,
      "height_km": 356.0442915688903,
      "semi_major_axis_km": 6734.543665006642,
      "eccentricity": 0.0001527,
      "inclination_deg": 42.9984,
      "raan_deg": 259.1999,
      "arg_perigee_deg": 277.5293,
      "mean_anomaly_deg": 82.5401,
      "mean_motion_rev_day": 15.70870928
    },
    {
      "epoch": "2026-04-13T03:15:07.620768Z",
      "apogee_km": 357.5319131379438,
      "perigee_km": 355.18319081799564,
      "latitude_deg": -5.684276894845148e-05,
      "longitude_deg": 0.6553573007224598,
      "height_km": 356.4379303136933,
      "semi_major_axis_km": 6734.494551977969,
      "eccentricity": 0.00017438,
      "inclination_deg": 43.0002,
      "raan_deg": 250.7678,
      "arg_perigee_deg": 254.8092,
      "mean_anomaly_deg": 105.2582,
      "mean_motion_rev_day": 15.70888112
    }
  ]
}